{"type": "FeatureCollection", "features": [ {"type": "Feature", "properties": {"norad_id": 38779, "name": "GSAT-10 (GAGAN/PRN 128)", "group": "gnss", "lat": -0.04783868980695029, "lon": 133.53543031162914, "alt_km": 35775.39654155403, "timestamp": "2025-12-16T21:38:57.416939+00:00", "meta": {"OBJECT_NAME": "GSAT-10 (GAGAN/PRN 128)", "OBJECT_ID": "2012-051B", "EPOCH": "2025-12-16T03:28:49.612224", "MEAN_MOTION": 1.00272843, "ECCENTRICITY": 0.00024946, "INCLINATION": 0.0819, "RA_OF_ASC_NODE": 266.0315, "ARG_OF_PERICENTER": 220.686, "MEAN_ANOMALY": 93.545, "EPHEMERIS_TYPE": 0, "CLASSIFICATION_TYPE": "U", "NORAD_CAT_ID": 38779, "ELEMENT_SET_NO": 999, "REV_AT_EPOCH": 4826, "BSTAR": 0, "MEAN_MOTION_DOT": -1.42e-06, "MEAN_MOTION_DDOT": 0}, "tle": {"line1": "1 38779U 12051B   25350.14501866 -.00000142  00000+0  00000+0 0  9995", "line2": "2 38779   0.0819 266.0315 0002494 220.6860  93.5450  1.00272843 48263"}}, "geometry": {"type": "Point", "coordinates": [133.53543031162914, -0.04783868980695029]}}, {"type": "Feature", "properties": {"norad_id": 38833, "name": "GPS BIIF-3  (PRN 24)", "group": "gnss", "lat": 35.47533701374926, "lon": -177.15835583037307, "alt_km": 19732.420974751545, "timestamp": "2025-12-16T21:38:57.416951+00:00", "meta": {"OBJECT_NAME": "GPS BIIF-3  (PRN 24)", "OBJECT_ID": "2012-053A", "EPOCH": "2025-12-15T20:13:20.824032", "MEAN_MOTION": 2.00565066, "ECCENTRICITY": 0.01759247, "INCLINATION": 53.5583, "RA_OF_ASC_NODE": 151.1115, "ARG_OF_PERICENTER": 64.0399, "MEAN_ANOMALY": 297.7616, "EPHEMERIS_TYPE": 0, "CLASSIFICATION_TYPE": "U", "NORAD_CAT_ID": 38833, "ELEMENT_SET_NO": 999, "REV_AT_EPOCH": 9576, "BSTAR": 0, "MEAN_MOTION_DOT": 8e-07, "MEAN_MOTION_DDOT": 0}, "tle": {"line1": "1 38833U 12053A   25349.84260213  .00000080  00000+0  00000+0 0  9991", "line2": "2 38833  53.5583 151.1115 0175924  64.0399 297.7616  2.00565066 95765"}}, "geometry": {"type": "Point", "coordinates": [-177.15835583037307, 35.47533701374926]}}, {"type": "Feature", "properties": {"norad_id": 38857, "name": "GSAT0103 (GALILEO-FM3)", "group": "gnss", "lat": -55.69273158400154, "lon": 18.270675748036734, "alt_km": 23220.283607154, "timestamp": "2025-12-16T21:38:57.416964+00:00", "meta": {"OBJECT_NAME": "GSAT0103 (GALILEO-FM3)", "OBJECT_ID": "2012-055A", "EPOCH": "2025-12-13T12:39:44.093088", "MEAN_MOTION": 1.70473367, "ECCENTRICITY": 0.00026827, "INCLINATION": 55.6929, "RA_OF_ASC_NODE": 106.6448, "ARG_OF_PERICENTER": 268.8486, "MEAN_ANOMALY": 91.0883, "EPHEMERIS_TYPE": 0, "CLASSIFICATION_TYPE": "U", "NORAD_CAT_ID": 38857, "ELEMENT_SET_NO": 999, "REV_AT_EPOCH": 8184, "BSTAR": 0, "MEAN_MOTION_DOT": 1e-08, "MEAN_MOTION_DDOT": 0}, "tle": {"line1": "1 38857U 12055A   25347.52759367  .00000001  00000+0  00000+0 0  9998", "line2": "2 38857  55.6929 106.6448 0002682 268.8486  91.0883  1.70473367 81846"}}, "geometry": {"type": "Point", "coordinates": [18.270675748036734, -55.69273158400154]}}, {"type": "Feature", "properties": {"norad_id": 38953, "name": "BEIDOU-2 G6 (C02)", "group": "gnss", "lat": 3.410968936060109, "lon": 134.50973734646593, "alt_km": 35806.99992291158, "timestamp": "2025-12-16T21:38:57.416976+00:00", "meta": {"OBJECT_NAME": "BEIDOU-2 G6 (C02)", "OBJECT_ID": "2012-059A", "EPOCH": "2025-12-15T20:38:09.573792", "MEAN_MOTION": 1.00269594, "ECCENTRICITY": 0.00080079, "INCLINATION": 3.9573, "RA_OF_ASC_NODE": 75.4759, "ARG_OF_PERICENTER": 290.8885, "MEAN_ANOMALY": 111.922, "EPHEMERIS_TYPE": 0, "CLASSIFICATION_TYPE": "U", "NORAD_CAT_ID": 38953, "ELEMENT_SET_NO": 999, "REV_AT_EPOCH": 4807, "BSTAR": 0, "MEAN_MOTION_DOT": -1.55e-06, "MEAN_MOTION_DDOT": 0}, "tle": {"line1": "1 38953U 12059A   25349.85983303 -.00000155  00000+0  00000+0 0  9997", "line2": "2 38953   3.9573  75.4759 0008007 290.8885 111.9220  1.00269594 48070"}}, "geometry": {"type": "Point", "coordinates": [134.50973734646593, 3.410968936060109]}}, {"type": "Feature", "properties": {"norad_id": 38977, "name": "LUCH 5B (SDCM/PRN 125)", "group": "gnss", "lat": -2.9986361571238476, "lon": 34.481226553207954, "alt_km": 35810.9551558723, "timestamp": "2025-12-16T21:38:57.416988+00:00", "meta": {"OBJECT_NAME": "LUCH 5B (SDCM/PRN 125)", "OBJECT_ID": "2012-061A", "EPOCH": "2025-12-15T23:34:52.650912", "MEAN_MOTION": 1.00272477, "ECCENTRICITY": 0.00068347, "INCLINATION": 10.0884, "RA_OF_ASC_NODE": 51.6754, "ARG_OF_PERICENTER": 194.0915, "MEAN_ANOMALY": 176.4973, "EPHEMERIS_TYPE": 0, "CLASSIFICATION_TYPE": "U", "NORAD_CAT_ID": 38977, "ELEMENT_SET_NO": 999, "REV_AT_EPOCH": 4777, "BSTAR": 0, "MEAN_MOTION_DOT": -1.23e-06, "MEAN_MOTION_DDOT": 0}, "tle": {"line1": "1 38977U 12061A   25349.98255383 -.00000123  00000+0  00000+0 0  9995", "line2": "2 38977  10.0884  51.6754 0006834 194.0915 176.4973  1.00272477 47777"}}, "geometry": {"type": "Point", "coordinates": [34.481226553207954, -2.9986361571238476]}}, {"type": "Feature", "properties": {"norad_id": 39155, "name": "COSMOS 2485 (747)", "group": "gnss", "lat": 43.51741780815151, "lon": 105.58048283108478, "alt_km": 19187.720703718813, "timestamp": "2025-12-16T21:38:57.416999+00:00", "meta": {"OBJECT_NAME": "COSMOS 2485 (747)", "OBJECT_ID": "2013-019A", "EPOCH": "2025-12-13T13:15:58.678272", "MEAN_MOTION": 2.13102947, "ECCENTRICITY": 0.00246467, "INCLINATION": 65.3142, "RA_OF_ASC_NODE": 79.8396, "ARG_OF_PERICENTER": 229.7128, "MEAN_ANOMALY": 130.0848, "EPHEMERIS_TYPE": 0, "CLASSIFICATION_TYPE": "U", "NORAD_CAT_ID": 39155, "ELEMENT_SET_NO": 999, "REV_AT_EPOCH": 9832, "BSTAR": 0, "MEAN_MOTION_DOT": -4.8e-07, "MEAN_MOTION_DDOT": 0}, "tle": {"line1": "1 39155U 13019A   25347.55276248 -.00000048  00000+0  00000+0 0  9998", "line2": "2 39155  65.3142  79.8396 0024646 229.7128 130.0848  2.13102947 98326"}}, "geometry": {"type": "Point", "coordinates": [105.58048283108478, 43.51741780815151]}}, {"type": "Feature", "properties": {"norad_id": 39166, "name": "GPS BIIF-4  (PRN 27)", "group": "gnss", "lat": 27.1709743463219, "lon": 75.04745279388592, "alt_km": 20221.2581323955, "timestamp": "2025-12-16T21:38:57.417010+00:00", "meta": {"OBJECT_NAME": "GPS BIIF-4  (PRN 27)", "OBJECT_ID": "2013-023A", "EPOCH": "2025-12-15T04:59:33.811872", "MEAN_MOTION": 2.00564736, "ECCENTRICITY": 0.01378529, "INCLINATION": 54.65, "RA_OF_ASC_NODE": 276.4679, "ARG_OF_PERICENTER": 48.4851, "MEAN_ANOMALY": 312.7012, "EPHEMERIS_TYPE": 0, "CLASSIFICATION_TYPE": "U", "NORAD_CAT_ID": 39166, "ELEMENT_SET_NO": 999, "REV_AT_EPOCH": 9219, "BSTAR": 0, "MEAN_MOTION_DOT": -6.8e-07, "MEAN_MOTION_DDOT": 0}, "tle": {"line1": "1 39166U 13023A   25349.20803023 -.00000068  00000+0  00000+0 0  9998", "line2": "2 39166  54.6500 276.4679 0137852  48.4851 312.7012  2.00564736 92194"}}, "geometry": {"type": "Point", "coordinates": [75.04745279388592, 27.1709743463219]}}, {"type": "Feature", "properties": {"norad_id": 39199, "name": "IRNSS-1A", "group": "gnss", "lat": 21.284880515254507, "lon": 99.81661268477437, "alt_km": 35879.11819245668, "timestamp": "2025-12-16T21:38:57.417024+00:00", "meta": {"OBJECT_NAME": "IRNSS-1A", "OBJECT_ID": "2013-034A", "EPOCH": "2025-12-15T18:47:23.098272", "MEAN_MOTION": 1.00271584, "ECCENTRICITY": 0.00231703, "INCLINATION": 35.3101, "RA_OF_ASC_NODE": 66.5101, "ARG_OF_PERICENTER": 205.6555, "MEAN_ANOMALY": 149.256, "EPHEMERIS_TYPE": 0, "CLASSIFICATION_TYPE": "U", "NORAD_CAT_ID": 39199, "ELEMENT_SET_NO": 999, "REV_AT_EPOCH": 4552, "BSTAR": 0, "MEAN_MOTION_DOT": 6.4e-07, "MEAN_MOTION_DDOT": 0}, "tle": {"line1": "1 39199U 13034A   25349.78290623  .00000064  00000+0  00000+0 0  9990", "line2": "2 39199  35.3101  66.5101 0023170 205.6555 149.2560  1.00271584 45527"}}, "geometry": {"type": "Point", "coordinates": [99.81661268477437, 21.284880515254507]}}, {"type": "Feature", "properties": {"norad_id": 39533, "name": "GPS BIIF-5  (PRN 30)", "group": "gnss", "lat": 26.62403891412113, "lon": -44.94220325156534, "alt_km": 20141.445657721666, "timestamp": "2025-12-16T21:38:57.417035+00:00", "meta": {"OBJECT_NAME": "GPS BIIF-5  (PRN 30)", "OBJECT_ID": "2014-008A", "EPOCH": "2025-12-16T04:46:33.160224", "MEAN_MOTION": 2.00574644, "ECCENTRICITY": 0.00793151, "INCLINATION": 53.6318, "RA_OF_ASC_NODE": 156.7835, "ARG_OF_PERICENTER": 226.5644, "MEAN_ANOMALY": 132.7818, "EPHEMERIS_TYPE": 0, "CLASSIFICATION_TYPE": "U", "NORAD_CAT_ID": 39533, "ELEMENT_SET_NO": 999, "REV_AT_EPOCH": 8601, "BSTAR": 0, "MEAN_MOTION_DOT": 8.7e-07, "MEAN_MOTION_DDOT": 0}, "tle": {"line1": "1 39533U 14008A   25350.19899491  .00000087  00000+0  00000+0 0  9994", "line2": "2 39533  53.6318 156.7835 0079315 226.5644 132.7818  2.00574644 86017"}}, "geometry": {"type": "Point", "coordinates": [-44.94220325156534, 26.62403891412113]}}, {"type": "Feature", "properties": {"norad_id": 39617, "name": "ASTRA 5B (EGNOS/PRN 123)", "group": "gnss", "lat": 0.055373791746481285, "lon": 74.03744801925589, "alt_km": 35802.49722704499, "timestamp": "2025-12-16T21:38:57.417047+00:00", "meta": {"OBJECT_NAME": "ASTRA 5B (EGNOS/PRN 123)", "OBJECT_ID": "2014-011B", "EPOCH": "2025-12-16T06:37:09.075072", "MEAN_MOTION": 1.0027438, "ECCENTRICITY": 0.00042056, "INCLINATION": 0.0675, "RA_OF_ASC_NODE": 44.0726, "ARG_OF_PERICENTER": 224.7944, "MEAN_ANOMALY": 299.0951, "EPHEMERIS_TYPE": 0, "CLASSIFICATION_TYPE": "U", "NORAD_CAT_ID": 39617, "ELEMENT_SET_NO": 999, "REV_AT_EPOCH": 4283, "BSTAR": 0, "MEAN_MOTION_DOT": 1.61e-06, "MEAN_MOTION_DDOT": 0}, "tle": {"line1": "1 39617U 14011B   25350.27579948  .00000161  00000+0  00000+0 0  9995", "line2": "2 39617   0.0675  44.0726 0004205 224.7944 299.0951  1.00274380 42839"}}, "geometry": {"type": "Point", "coordinates": [74.03744801925589, 0.055373791746481285]}}]}